ONEWEB-0716             
1 55177U 23004AP  25300.83235193  .00000039  00000+0  67946-4 0  9995
2 55177  87.9115  52.0776 0001696 107.9297 252.2019 13.17648371136981
ONEWEB-0717             
1 55178U 23004AQ  25300.73954581  .00000021  00000+0  21309-4 0  9998
2 55178  87.9127  52.0631 0001620  75.0763 285.0548 13.17649177137027
ONEWEB-0719             
1 55179U 23004AR  25300.82560872 -.00000044  00000+0 -14550-3 0  9991
2 55179  87.9123  52.0285 0001524 106.4586 253.6713 13.17649144136987
ONEWEB-0530             
1 55796U 23029A   25300.97165417 -.00000031  00000+0 -10789-3 0  9991
2 55796  87.9196 320.7980 0001529  79.3108 280.8198 13.20769969130493
ONEWEB-0534             
1 55797U 23029B   25300.95903011 -.00000065  00000+0 -19131-3 0  9997
2 55797  87.9190 320.8022 0001843  96.7731 263.3612 13.20769928130492
ONEWEB-0556             
1 55798U 23029C   25300.96533709 -.00000112  00000+0 -30688-3 0  9995
2 55798  87.9197 320.7989 0001183 107.5771 252.5492 13.20769838130499
ONEWEB-0562             
1 55799U 23029D   25300.95271395  .00000013  00000+0 -11028-5 0  9993
2 55799  87.9191 320.7859 0001050  76.0124 284.1126 13.20771810130493
ONEWEB-0563             
1 55800U 23029E   25300.49185747  .00000046  00000+0  81548-4 0  9998
2 55800  87.9197 320.9029 0001841 102.7334 257.4005 13.20769899130427
